{"epoch":1784710044,"count":18256,"objects":[{"id":"55945","name":"STARLINK-5925","type":"PAYLOAD","l1":"1 55945U 23037AH  26202.35285827 -.00000036  00000-0  47925-5 0  9997","l2":"2 55945  70.0002 307.3645 0003458 267.7892  92.2871 14.98329294184001"},{"id":"55946","name":"STARLINK-5857","type":"PAYLOAD","l1":"1 55946U 23037AJ  26202.35269301 -.00000037  00000-0  46675-5 0  9999","l2":"2 55946  70.0001 307.3627 0003320 267.5971  92.4808 14.98329130183993"},{"id":"55948","name":"STARLINK-5900","type":"PAYLOAD","l1":"1 55948U 23037AL  26202.63203460 -.00000511  00000-0 -34992-4 0  9992","l2":"2 55948  69.9998 286.8547 0003200 269.9480  90.1313 14.98328353184530"},{"id":"55949","name":"STARLINK-5899","type":"PAYLOAD","l1":"1 55949U 23037AM  26202.50685999 -.00000004  00000-0  74377-5 0  9998","l2":"2 55949  69.9998 287.2210 0003415 269.9629  90.1138 14.98330860184515"},{"id":"55950","name":"STARLINK-5911","type":"PAYLOAD","l1":"1 55950U 23037AN  26202.49433427  .00000468  00000-0  47025-4 0  9997","l2":"2 55950  69.9995 287.1767 0003558 265.6512  94.4241 14.98330998184516"},{"id":"55951","name":"STARLINK-5908","type":"PAYLOAD","l1":"1 55951U 23037AP  26202.53627399  .00000160  00000-0  21189-4 0  9998","l2":"2 55951  69.9999 306.8002 0003520 266.5982  93.4775 14.98330340184031"},{"id":"55952","name":"STARLINK-5893","type":"PAYLOAD","l1":"1 55952U 23037AQ  26202.36515738 -.00000137  00000-0 -37078-5 0  9994","l2":"2 55952  69.9997 287.5296 0003478 270.5766  89.4995 14.98329907184493"},{"id":"55954","name":"STARLINK-5892","type":"PAYLOAD","l1":"1 55954U 23037AS  26202.33577160  .00000229  00000-0  26968-4 0  9995","l2":"2 55954  69.9993 287.4237 0003402 268.8915  91.1854 14.98330860184492"},{"id":"55955","name":"STARLINK-5878","type":"PAYLOAD","l1":"1 55955U 23037AT  26202.48598975 -.00000185  00000-0 -76663-5 0  9990","l2":"2 55955  69.9997 287.1470 0003316 270.4398  89.6381 14.98329478184514"},{"id":"55956","name":"STARLINK-5883","type":"PAYLOAD","l1":"1 55956U 23037AU  26202.32742158  .00000315  00000-0  34179-4 0  9996","l2":"2 55956  69.9995 287.3950 0003381 267.2390  92.8382 14.98332529184491"},{"id":"55957","name":"STARLINK-5884","type":"PAYLOAD","l1":"1 55957U 23037AV  26202.35664142  .00000714  00000-0  67606-4 0  9990","l2":"2 55957  69.9993 287.4978 0003636 267.8049  92.2694 14.98330177184498"},{"id":"55958","name":"STARLINK-5928","type":"PAYLOAD","l1":"1 55958U 23037AW  26202.34829137  .00000717  00000-0  67880-4 0  9994","l2":"2 55958  69.9983 287.4675 0003961 263.2525  96.8183 14.98337395184494"},{"id":"55959","name":"STARLINK-5929","type":"PAYLOAD","l1":"1 55959U 23037AX  26202.61116040 -.00000073  00000-0  16738-5 0  9990","l2":"2 55959  69.9995 286.7800 0003575 269.6007  90.4742 14.98330830184539"},{"id":"55960","name":"STARLINK-5938","type":"PAYLOAD","l1":"1 55960U 23037AY  26202.49032684 -.00000028  00000-0  54733-5 0  9996","l2":"2 55960  69.9995 287.1441 0003152 270.3805  89.6993 14.98330721184518"},{"id":"55961","name":"STARLINK-5933","type":"PAYLOAD","l1":"1 55961U 23037AZ  26202.59863512  .00000177  00000-0  22595-4 0  9994","l2":"2 55961  69.9991 286.7351 0003554 268.0723  92.0029 14.98332713184532"},{"id":"55962","name":"STARLINK-5906","type":"PAYLOAD","l1":"1 55962U 23037BA  26202.63620578 -.00000034  00000-0  49836-5 0  9994","l2":"2 55962  69.9998 286.8640 0003508 268.2391  91.8366 14.98330168184537"},{"id":"55963","name":"STARLINK-5924","type":"PAYLOAD","l1":"1 55963U 23037BB  26202.33994771 -.00000344  00000-0 -21063-4 0  9997","l2":"2 55963  69.9997 287.4396 0003802 268.0607  92.0117 14.98333596184497"},{"id":"55964","name":"STARLINK-5895","type":"PAYLOAD","l1":"1 55964U 23037BC  26202.45767978  .00009636  00000-0  57323-3 0  9996","l2":"2 55964  69.9945 277.3870 0000629 172.2997 187.8179 15.11501735184756"},{"id":"55965","name":"STARLINK-5894","type":"PAYLOAD","l1":"1 55965U 23037BD  26202.32324739 -.00000040  00000-0  44562-5 0  9991","l2":"2 55965  69.9990 287.3792 0003755 266.8586  93.2144 14.98334338184498"},{"id":"55986","name":"STARLINK-5905","type":"PAYLOAD","l1":"1 55986U 23042A   26202.58409488 -.00003935  00000-0 -13347-3 0  9995","l2":"2 55986  43.0028  23.7066 0001491 274.2217  85.8464 15.27598236184169"},{"id":"55987","name":"STARLINK-5915","type":"PAYLOAD","l1":"1 55987U 23042B   26202.56353378  .00000600  00000-0  31321-4 0  9997","l2":"2 55987  43.0056  23.5702 0001602 268.4601  91.6067 15.27577452183342"},{"id":"55988","name":"STARLINK-5916","type":"PAYLOAD","l1":"1 55988U 23042C   26202.54905191  .00005234  00000-0  19958-3 0  9991","l2":"2 55988  43.0029  27.7340 0001312 261.6792  98.3911 15.27582897183296"},{"id":"55989","name":"STARLINK-5947","type":"PAYLOAD","l1":"1 55989U 23042D   26202.49429384  .00000187  00000-0  16330-4 0  9995","l2":"2 55989  43.0051  23.9117 0001710 275.0458  85.0198 15.27577151183334"},{"id":"55990","name":"STARLINK-5946","type":"PAYLOAD","l1":"1 55990U 23042E   26202.54940181  .00000341  00000-0  21927-4 0  9996","l2":"2 55990  43.0048  23.4661 0001105 270.5877  89.4848 15.27579528183345"},{"id":"55991","name":"STARLINK-5948","type":"PAYLOAD","l1":"1 55991U 23042F   26201.84221274 -.00000137  00000-0  45712-5 0  9997","l2":"2 55991  43.0042  24.2048 0001739 267.2615  92.8037 15.27576974183276"},{"id":"55993","name":"STARLINK-5969","type":"PAYLOAD","l1":"1 55993U 23042H   26202.55582582  .00000827  00000-0  39595-4 0  9996","l2":"2 55993  43.0065  23.5161 0002022 268.9010  91.1610 15.27576981183349"},{"id":"55994","name":"STARLINK-5956","type":"PAYLOAD","l1":"1 55994U 23042J   26202.56737921  .00000445  00000-0  25694-4 0  9998","l2":"2 55994  43.0059  23.5990 0001932 268.4714  91.5916 15.27602985183345"},{"id":"55996","name":"STARLINK-5903","type":"PAYLOAD","l1":"1 55996U 23042L   26202.54427426  .00000710  00000-0  35321-4 0  9997","l2":"2 55996  43.0042  23.4262 0001147 266.2368  93.8353 15.27578685183337"},{"id":"55998","name":"STARLINK-5902","type":"PAYLOAD","l1":"1 55998U 23042N   26202.54812585  .00000990  00000-0  45499-4 0  9990","l2":"2 55998  43.0050  23.4488 0001304 259.1546 100.9159 15.27583583183340"},{"id":"55999","name":"STARLINK-5901","type":"PAYLOAD","l1":"1 55999U 23042P   26201.85584661  .00000720  00000-0  35673-4 0  9999","l2":"2 55999  43.0030  27.7100 0001429 262.8848  97.1841 15.27581868183238"}]}