OBJECT_NAME,OBJECT_ID,EPOCH,MEAN_MOTION,ECCENTRICITY,INCLINATION,RA_OF_ASC_NODE,ARG_OF_PERICENTER,MEAN_ANOMALY,EPHEMERIS_TYPE,CLASSIFICATION_TYPE,NORAD_CAT_ID,ELEMENT_SET_NO,REV_AT_EPOCH,BSTAR,MEAN_MOTION_DOT,MEAN_MOTION_DDOT
STARLINK-5925,2023-037AH,2026-07-21T08:28:06.954528,14.98329294,.00034582,70.0002,307.3645,267.7892,92.2871,0,U,55945,999,18400,.4792457E-5,-.36E-6,0
STARLINK-5857,2023-037AJ,2026-07-21T08:27:52.676064,14.98329130,.00033201,70.0001,307.3627,267.5971,92.4808,0,U,55946,999,18399,.4667538E-5,-.37E-6,0
STARLINK-5900,2023-037AL,2026-07-21T15:10:07.789440,14.98328353,.00031997,69.9998,286.8547,269.9480,90.1313,0,U,55948,999,18453,-.34992447E-4,-.511E-5,0
STARLINK-5899,2023-037AM,2026-07-21T12:09:52.703136,14.98330860,.00034154,69.9998,287.2210,269.9629,90.1138,0,U,55949,999,18451,.7437678E-5,-.4E-7,0
STARLINK-5911,2023-037AN,2026-07-21T11:51:50.480928,14.98330998,.00035582,69.9995,287.1767,265.6512,94.4241,0,U,55950,999,18451,.47024818E-4,.468E-5,0
STARLINK-5908,2023-037AP,2026-07-21T12:52:14.072736,14.98330340,.00035203,69.9999,306.8002,266.5982,93.4775,0,U,55951,999,18403,.21188947E-4,.16E-5,0
STARLINK-5893,2023-037AQ,2026-07-21T08:45:49.597632,14.98329907,.00034779,69.9997,287.5296,270.5766,89.4995,0,U,55952,999,18449,-.3707837E-5,-.137E-5,0
STARLINK-5892,2023-037AS,2026-07-21T08:03:30.666240,14.98330860,.00034018,69.9993,287.4237,268.8915,91.1854,0,U,55954,999,18449,.26967763E-4,.229E-5,0
STARLINK-5878,2023-037AT,2026-07-21T11:39:49.514400,14.98329478,.00033163,69.9997,287.1470,270.4398,89.6381,0,U,55955,999,18451,-.7666261E-5,-.185E-5,0
STARLINK-5883,2023-037AU,2026-07-21T07:51:29.224512,14.98332529,.00033808,69.9995,287.3950,267.2390,92.8382,0,U,55956,999,18449,.34178902E-4,.315E-5,0
STARLINK-5884,2023-037AV,2026-07-21T08:33:33.818688,14.98330177,.00036357,69.9993,287.4978,267.8049,92.2694,0,U,55957,999,18449,.67606042E-4,.714E-5,0
STARLINK-5928,2023-037AW,2026-07-21T08:21:32.374368,14.98337395,.00039613,69.9983,287.4675,263.2525,96.8183,0,U,55958,999,18449,.67880104E-4,.717E-5,0
STARLINK-5929,2023-037AX,2026-07-21T14:40:04.258560,14.98330830,.00035745,69.9995,286.7800,269.6007,90.4742,0,U,55959,999,18453,.1673769E-5,-.73E-6,0
STARLINK-5938,2023-037AY,2026-07-21T11:46:04.238976,14.98330721,.00031517,69.9995,287.1441,270.3805,89.6993,0,U,55960,999,18451,.54733E-5,-.28E-6,0
STARLINK-5933,2023-037AZ,2026-07-21T14:22:02.074368,14.98332713,.00035541,69.9991,286.7351,268.0723,92.0029,0,U,55961,999,18453,.22595386E-4,.177E-5,0
STARLINK-5906,2023-037BA,2026-07-21T15:16:08.179392,14.98330168,.0003508,69.9998,286.8640,268.2391,91.8366,0,U,55962,999,18453,.4983596E-5,-.34E-6,0
STARLINK-5924,2023-037BB,2026-07-21T08:09:31.482144,14.98333596,.00038017,69.9997,287.4396,268.0607,92.0117,0,U,55963,999,18449,-.21063379E-4,-.344E-5,0
STARLINK-5895,2023-037BC,2026-07-21T10:59:03.532992,15.11501735,.00006288,69.9945,277.3870,172.2997,187.8179,0,U,55964,999,18475,.57322649E-3,.9636E-4,0
STARLINK-5894,2023-037BD,2026-07-21T07:45:28.574496,14.98334338,.00037552,69.9990,287.3792,266.8586,93.2144,0,U,55965,999,18449,.4456159E-5,-.4E-6,0
STARLINK-5905,2023-042A,2026-07-21T14:01:05.797632,15.27598236,.00014909,43.0028,23.7066,274.2217,85.8464,0,U,55986,999,18416,-.13347213E-3,-.3935E-4,0
STARLINK-5915,2023-042B,2026-07-21T13:31:29.318592,15.27577452,.0001602,43.0056,23.5702,268.4601,91.6067,0,U,55987,999,18334,.31321364E-4,.6E-5,0
STARLINK-5916,2023-042C,2026-07-21T13:10:38.085024,15.27582897,.00013121,43.0029,27.7340,261.6792,98.3911,0,U,55988,999,18329,.19958228E-3,.5234E-4,0
STARLINK-5947,2023-042D,2026-07-21T11:51:46.987776,15.27577151,.000171,43.0051,23.9117,275.0458,85.0198,0,U,55989,999,18333,.16329821E-4,.187E-5,0
STARLINK-5946,2023-042E,2026-07-21T13:11:08.316384,15.27579528,.00011046,43.0048,23.4661,270.5877,89.4848,0,U,55990,999,18334,.2192692E-4,.341E-5,0
STARLINK-5948,2023-042F,2026-07-20T20:12:47.180736,15.27576974,.00017392,43.0042,24.2048,267.2615,92.8037,0,U,55991,999,18327,.4571175E-5,-.137E-5,0
STARLINK-5969,2023-042H,2026-07-21T13:20:23.350848,15.27576981,.00020219,43.0065,23.5161,268.9010,91.1610,0,U,55993,999,18334,.39595124E-4,.827E-5,0
STARLINK-5956,2023-042J,2026-07-21T13:37:01.563744,15.27602985,.00019321,43.0059,23.5990,268.4714,91.5916,0,U,55994,999,18334,.25693749E-4,.445E-5,0
STARLINK-5903,2023-042L,2026-07-21T13:03:45.296064,15.27578685,.00011468,43.0042,23.4262,266.2368,93.8353,0,U,55996,999,18333,.35321145E-4,.71E-5,0
STARLINK-5902,2023-042N,2026-07-21T13:09:18.073440,15.27583583,.00013043,43.0050,23.4488,259.1546,100.9159,0,U,55998,999,18334,.45499229E-4,.99E-5,0
STARLINK-5901,2023-042P,2026-07-20T20:32:25.147104,15.27581868,.00014293,43.0030,27.7100,262.8848,97.1841,0,U,55999,999,18323,.35673209E-4,.72E-5,0
